{"type": "FeatureCollection", "features": [ {"type": "Feature", "properties": {"norad_id": 30928, "name": "FENGYUN 1C DEB", "group": "fengyun-1c-debris", "lat": 5.912242749475592, "lon": -99.48501461952432, "alt_km": 1475.5899835287082, "timestamp": "2025-12-16T21:38:57.454394+00:00", "meta": {"OBJECT_NAME": "FENGYUN 1C DEB", "OBJECT_ID": "1999-025AZS", "EPOCH": "2025-12-16T04:35:18.652704", "MEAN_MOTION": 13.22242945, "ECCENTRICITY": 0.04500763, "INCLINATION": 98.8829, "RA_OF_ASC_NODE": 78.9806, "ARG_OF_PERICENTER": 23.4047, "MEAN_ANOMALY": 5.9833, "EPHEMERIS_TYPE": 0, "CLASSIFICATION_TYPE": "U", "NORAD_CAT_ID": 30928, "ELEMENT_SET_NO": 999, "REV_AT_EPOCH": 90394, "BSTAR": 0.00086489894, "MEAN_MOTION_DOT": 5.8e-06, "MEAN_MOTION_DDOT": 0}, "tle": {"line1": "1 30928U 99025AZS 25350.19118811  .00000580  00000+0  86490-3 0  9994", "line2": "2 30928  98.8829  78.9806 0450076  23.4047   5.9833 13.22242945903945"}}, "geometry": {"type": "Point", "coordinates": [-99.48501461952432, 5.912242749475592]}}, {"type": "Feature", "properties": {"norad_id": 30930, "name": "FENGYUN 1C DEB", "group": "fengyun-1c-debris", "lat": -55.44469630426768, "lon": -173.09916862983053, "alt_km": 835.9026174021574, "timestamp": "2025-12-16T21:38:57.454404+00:00", "meta": {"OBJECT_NAME": "FENGYUN 1C DEB", "OBJECT_ID": "1999-025AZU", "EPOCH": "2025-12-15T20:19:28.931232", "MEAN_MOTION": 14.37396768, "ECCENTRICITY": 0.01097624, "INCLINATION": 98.2154, "RA_OF_ASC_NODE": 18.0015, "ARG_OF_PERICENTER": 97.0874, "MEAN_ANOMALY": 81.3311, "EPHEMERIS_TYPE": 0, "CLASSIFICATION_TYPE": "U", "NORAD_CAT_ID": 30930, "ELEMENT_SET_NO": 999, "REV_AT_EPOCH": 98376, "BSTAR": 0.00032382204, "MEAN_MOTION_DOT": 9.95e-06, "MEAN_MOTION_DDOT": 0}, "tle": {"line1": "1 30930U 99025AZU 25349.84686263  .00000995  00000+0  32382-3 0  9999", "line2": "2 30930  98.2154  18.0015 0109762  97.0874  81.3311 14.37396768983765"}}, "geometry": {"type": "Point", "coordinates": [-173.09916862983053, -55.44469630426768]}}, {"type": "Feature", "properties": {"norad_id": 30931, "name": "FENGYUN 1C DEB", "group": "fengyun-1c-debris", "lat": -70.0321586630146, "lon": -157.94703977210347, "alt_km": 945.6733085091018, "timestamp": "2025-12-16T21:38:57.454414+00:00", "meta": {"OBJECT_NAME": "FENGYUN 1C DEB", "OBJECT_ID": "1999-025AZV", "EPOCH": "2025-12-15T03:27:27.596160", "MEAN_MOTION": 14.01516327, "ECCENTRICITY": 0.00931105, "INCLINATION": 99.1722, "RA_OF_ASC_NODE": 46.6893, "ARG_OF_PERICENTER": 34.8573, "MEAN_ANOMALY": 353.009, "EPHEMERIS_TYPE": 0, "CLASSIFICATION_TYPE": "U", "NORAD_CAT_ID": 30931, "ELEMENT_SET_NO": 999, "REV_AT_EPOCH": 95959, "BSTAR": 0.00052780049, "MEAN_MOTION_DOT": 7.84e-06, "MEAN_MOTION_DDOT": 0}, "tle": {"line1": "1 30931U 99025AZV 25349.14406940  .00000784  00000+0  52780-3 0  9995", "line2": "2 30931  99.1722  46.6893 0093110  34.8573 353.0090 14.01516327959595"}}, "geometry": {"type": "Point", "coordinates": [-157.94703977210347, -70.0321586630146]}}, {"type": "Feature", "properties": {"norad_id": 30932, "name": "FENGYUN 1C DEB", "group": "fengyun-1c-debris", "lat": -20.231843965069285, "lon": 100.56538375144851, "alt_km": 800.9511085474123, "timestamp": "2025-12-16T21:38:57.454426+00:00", "meta": {"OBJECT_NAME": "FENGYUN 1C DEB", "OBJECT_ID": "1999-025AZW", "EPOCH": "2025-12-14T06:26:14.381664", "MEAN_MOTION": 14.26837649, "ECCENTRICITY": 0.00581207, "INCLINATION": 98.9074, "RA_OF_ASC_NODE": 281.1987, "ARG_OF_PERICENTER": 289.5412, "MEAN_ANOMALY": 69.9497, "EPHEMERIS_TYPE": 0, "CLASSIFICATION_TYPE": "U", "NORAD_CAT_ID": 30932, "ELEMENT_SET_NO": 999, "REV_AT_EPOCH": 96416, "BSTAR": 0.0030626937, "MEAN_MOTION_DOT": 7.523e-05, "MEAN_MOTION_DDOT": 0}, "tle": {"line1": "1 30932U 99025AZW 25348.26822201  .00007523  00000+0  30627-2 0  9993", "line2": "2 30932  98.9074 281.1987 0058120 289.5412  69.9497 14.26837649964169"}}, "geometry": {"type": "Point", "coordinates": [100.56538375144851, -20.231843965069285]}}, {"type": "Feature", "properties": {"norad_id": 30933, "name": "FENGYUN 1C DEB", "group": "fengyun-1c-debris", "lat": -62.37178200454936, "lon": 135.8802498017656, "alt_km": 755.2069816593148, "timestamp": "2025-12-16T21:38:57.454438+00:00", "meta": {"OBJECT_NAME": "FENGYUN 1C DEB", "OBJECT_ID": "1999-025AZX", "EPOCH": "2025-12-16T05:32:12.869664", "MEAN_MOTION": 14.36593334, "ECCENTRICITY": 0.00765283, "INCLINATION": 99.0472, "RA_OF_ASC_NODE": 332.8979, "ARG_OF_PERICENTER": 312.7713, "MEAN_ANOMALY": 61.6708, "EPHEMERIS_TYPE": 0, "CLASSIFICATION_TYPE": "U", "NORAD_CAT_ID": 30933, "ELEMENT_SET_NO": 999, "REV_AT_EPOCH": 95922, "BSTAR": 0.0036420488, "MEAN_MOTION_DOT": 0.00011042, "MEAN_MOTION_DDOT": 0}, "tle": {"line1": "1 30933U 99025AZX 25350.23070451  .00011042  00000+0  36420-2 0  9994", "line2": "2 30933  99.0472 332.8979 0076528 312.7713  61.6708 14.36593334959220"}}, "geometry": {"type": "Point", "coordinates": [135.8802498017656, -62.37178200454936]}}, {"type": "Feature", "properties": {"norad_id": 30934, "name": "FENGYUN 1C DEB", "group": "fengyun-1c-debris", "lat": -77.95376294882627, "lon": -86.30835205028109, "alt_km": 1315.475468627027, "timestamp": "2025-12-16T21:38:57.454448+00:00", "meta": {"OBJECT_NAME": "FENGYUN 1C DEB", "OBJECT_ID": "1999-025AZY", "EPOCH": "2025-12-15T21:06:06.408576", "MEAN_MOTION": 13.46753135, "ECCENTRICITY": 0.03407918, "INCLINATION": 98.7657, "RA_OF_ASC_NODE": 226.4921, "ARG_OF_PERICENTER": 73.5184, "MEAN_ANOMALY": 290.3108, "EPHEMERIS_TYPE": 0, "CLASSIFICATION_TYPE": "U", "NORAD_CAT_ID": 30934, "ELEMENT_SET_NO": 999, "REV_AT_EPOCH": 91750, "BSTAR": 0.0019705177, "MEAN_MOTION_DOT": 1.662e-05, "MEAN_MOTION_DDOT": 0}, "tle": {"line1": "1 30934U 99025AZY 25349.87924084  .00001662  00000+0  19705-2 0  9997", "line2": "2 30934  98.7657 226.4921 0340791  73.5184 290.3108 13.46753135917504"}}, "geometry": {"type": "Point", "coordinates": [-86.30835205028109, -77.95376294882627]}}, {"type": "Feature", "properties": {"norad_id": 30936, "name": "FENGYUN 1C DEB", "group": "fengyun-1c-debris", "lat": 19.24714380422283, "lon": 18.577834209926863, "alt_km": 820.3028749321938, "timestamp": "2025-12-16T21:38:57.454460+00:00", "meta": {"OBJECT_NAME": "FENGYUN 1C DEB", "OBJECT_ID": "1999-025BAA", "EPOCH": "2025-12-16T01:34:12.757152", "MEAN_MOTION": 14.23380795, "ECCENTRICITY": 0.00459395, "INCLINATION": 98.5815, "RA_OF_ASC_NODE": 20.7843, "ARG_OF_PERICENTER": 280.8657, "MEAN_ANOMALY": 133.6015, "EPHEMERIS_TYPE": 0, "CLASSIFICATION_TYPE": "U", "NORAD_CAT_ID": 30936, "ELEMENT_SET_NO": 999, "REV_AT_EPOCH": 97180, "BSTAR": 0.00047496279, "MEAN_MOTION_DOT": 1.046e-05, "MEAN_MOTION_DDOT": 0}, "tle": {"line1": "1 30936U 99025BAA 25350.06542543  .00001046  00000+0  47496-3 0  9993", "line2": "2 30936  98.5815  20.7843 0045939 280.8657 133.6015 14.23380795971805"}}, "geometry": {"type": "Point", "coordinates": [18.577834209926863, 19.24714380422283]}}, {"type": "Feature", "properties": {"norad_id": 30937, "name": "FENGYUN 1C DEB", "group": "fengyun-1c-debris", "lat": 24.62305152773739, "lon": -132.58791910499247, "alt_km": 929.5383439934367, "timestamp": "2025-12-16T21:38:57.454470+00:00", "meta": {"OBJECT_NAME": "FENGYUN 1C DEB", "OBJECT_ID": "1999-025BAB", "EPOCH": "2025-12-16T02:08:12.859872", "MEAN_MOTION": 13.95586319, "ECCENTRICITY": 0.00757046, "INCLINATION": 99.0886, "RA_OF_ASC_NODE": 42.4033, "ARG_OF_PERICENTER": 44.1777, "MEAN_ANOMALY": 347.5032, "EPHEMERIS_TYPE": 0, "CLASSIFICATION_TYPE": "U", "NORAD_CAT_ID": 30937, "ELEMENT_SET_NO": 999, "REV_AT_EPOCH": 95763, "BSTAR": 0.00023556881, "MEAN_MOTION_DOT": 2.84e-06, "MEAN_MOTION_DDOT": 0}, "tle": {"line1": "1 30937U 99025BAB 25350.08903773  .00000284  00000+0  23557-3 0  9997", "line2": "2 30937  99.0886  42.4033 0075704  44.1777 347.5032 13.95586319957637"}}, "geometry": {"type": "Point", "coordinates": [-132.58791910499247, 24.62305152773739]}}, {"type": "Feature", "properties": {"norad_id": 30938, "name": "FENGYUN 1C DEB", "group": "fengyun-1c-debris", "lat": -57.351040821031475, "lon": 170.625743119251, "alt_km": 834.7693627134549, "timestamp": "2025-12-16T21:38:57.454480+00:00", "meta": {"OBJECT_NAME": "FENGYUN 1C DEB", "OBJECT_ID": "1999-025BAC", "EPOCH": "2025-12-16T00:29:19.839264", "MEAN_MOTION": 14.19824272, "ECCENTRICITY": 0.00457386, "INCLINATION": 98.5907, "RA_OF_ASC_NODE": 3.4164, "ARG_OF_PERICENTER": 334.2021, "MEAN_ANOMALY": 80.5637, "EPHEMERIS_TYPE": 0, "CLASSIFICATION_TYPE": "U", "NORAD_CAT_ID": 30938, "ELEMENT_SET_NO": 999, "REV_AT_EPOCH": 97166, "BSTAR": 0.00034531149, "MEAN_MOTION_DOT": 6.97e-06, "MEAN_MOTION_DDOT": 0}, "tle": {"line1": "1 30938U 99025BAC 25350.02036851  .00000697  00000+0  34531-3 0  9998", "line2": "2 30938  98.5907   3.4164 0045738 334.2021  80.5637 14.19824272971661"}}, "geometry": {"type": "Point", "coordinates": [170.625743119251, -57.351040821031475]}}, {"type": "Feature", "properties": {"norad_id": 30940, "name": "FENGYUN 1C DEB", "group": "fengyun-1c-debris", "lat": -8.781489023021777, "lon": -7.596769346471389, "alt_km": 839.4049318577772, "timestamp": "2025-12-16T21:38:57.454490+00:00", "meta": {"OBJECT_NAME": "FENGYUN 1C DEB", "OBJECT_ID": "1999-025BAE", "EPOCH": "2025-12-15T23:47:40.612992", "MEAN_MOTION": 14.08309866, "ECCENTRICITY": 0.00410346, "INCLINATION": 98.622, "RA_OF_ASC_NODE": 350.19, "ARG_OF_PERICENTER": 354.647, "MEAN_ANOMALY": 62.4484, "EPHEMERIS_TYPE": 0, "CLASSIFICATION_TYPE": "U", "NORAD_CAT_ID": 30940, "ELEMENT_SET_NO": 999, "REV_AT_EPOCH": 96178, "BSTAR": 0.00039892083, "MEAN_MOTION_DOT": 6.46e-06, "MEAN_MOTION_DDOT": 0}, "tle": {"line1": "1 30940U 99025BAE 25349.99144228  .00000646  00000+0  39892-3 0  9992", "line2": "2 30940  98.6220 350.1900 0041034 354.6470  62.4484 14.08309866961788"}}, "geometry": {"type": "Point", "coordinates": [-7.596769346471389, -8.781489023021777]}}]}